[{"OBJECT_NAME":"STARLINK-30532","OBJECT_ID":"2023-158V","EPOCH":"2026-03-09T06:07:37.137216","MEAN_MOTION":15.26732748,"ECCENTRICITY":7.652e-5,"INCLINATION":43.0022,"RA_OF_ASC_NODE":29.483,"ARG_OF_PERICENTER":276.0895,"MEAN_ANOMALY":83.9869,"EPHEMERIS_TYPE":0,"CLASSIFICATION_TYPE":"U","NORAD_CAT_ID":58070,"ELEMENT_SET_NO":999,"REV_AT_EPOCH":13350,"BSTAR":0.00015373229,"MEAN_MOTION_DOT":3.865e-5,"MEAN_MOTION_DDOT":0},{"OBJECT_NAME":"TIANMU-1 12","OBJECT_ID":"2023-205B","EPOCH":"2026-03-09T23:16:21.235872","MEAN_MOTION":15.25812065,"ECCENTRICITY":0.00067383,"INCLINATION":97.3538,"RA_OF_ASC_NODE":91.8946,"ARG_OF_PERICENTER":353.283,"MEAN_ANOMALY":6.8317,"EPHEMERIS_TYPE":0,"CLASSIFICATION_TYPE":"U","NORAD_CAT_ID":58646,"ELEMENT_SET_NO":999,"REV_AT_EPOCH":12237,"BSTAR":0.00029269543,"MEAN_MOTION_DOT":7.417e-5,"MEAN_MOTION_DDOT":0}]
